start=new Date('2021-12-02T00:00:00.000Z').valueOf();
sats=[{"INCLINATION":"53.0554","NORAD_CAT_ID":"45391","MEAN_MOTION":"15.06390408","EPHEMERIS_TYPE":"0","CENTER_NAME":"EARTH","TIME_SYSTEM":"UTC","CLASSIFICATION_TYPE":"U","LAUNCH_DATE":"2020-03-18","OBJECT_ID":"2020-019AH","OBJECT_NAME":"STARLINK-1289","APOAPSIS":"548.377","MEAN_ELEMENT_THEORY":"SGP4","OBJECT_TYPE":"PAYLOAD","PERIOD":"95.593","FILE":"3229140","DECAY_DATE":null,"SEMIMAJOR_AXIS":"6925.378","RCS_SIZE":"LARGE","REV_AT_EPOCH":"9470","GP_ID":"190858165","PERIAPSIS":"546.109","MEAN_ANOMALY":"292.9176","MEAN_MOTION_DDOT":"0.0000000000000","MEAN_MOTION_DOT":"-0.00000614","REF_FRAME":"TEME","EPOCH":"2021-12-01T08:23:51.689184","TLE_LINE2":"2 45391  53.0554 306.7709 0001637  67.1986 292.9176 15.06390408 94704","BSTAR":"-0.00002235600000","ECCENTRICITY":"0.00016370","ARG_OF_PERICENTER":"67.1986","SITE":"AFETR","COUNTRY_CODE":"US","TLE_LINE1":"1 45391U 20019AH  21335.34990381 -.00000614  00000-0 -22356-4 0  9990","RA_OF_ASC_NODE":"306.7709","ELEMENT_SET_NO":"999"},{"MEAN_ANOMALY":"277.7240","MEAN_MOTION_DDOT":"0.0000000000000","MEAN_MOTION_DOT":"0.00009056","REF_FRAME":"TEME","EPOCH":"2021-12-01T09:44:43.990080","TLE_LINE2":"2 45392  52.9941 302.5941 0001840  82.3958 277.7240 15.08408064 94735","BSTAR":"0.00059318000000","ARG_OF_PERICENTER":"82.3958","ECCENTRICITY":"0.00018400","SITE":"AFETR","TLE_LINE1":"1 45392U 20019AJ  21335.40606470  .00009056  00000-0  59318-3 0  9995","COUNTRY_CODE":"US","ELEMENT_SET_NO":"999","RA_OF_ASC_NODE":"302.5941","INCLINATION":"52.9941","NORAD_CAT_ID":"45392","MEAN_MOTION":"15.08408064","EPHEMERIS_TYPE":"0","CENTER_NAME":"EARTH","LAUNCH_DATE":"2020-03-18","CLASSIFICATION_TYPE":"U","TIME_SYSTEM":"UTC","OBJECT_ID":"2020-019AJ","OBJECT_NAME":"STARLINK-1290","OBJECT_TYPE":"PAYLOAD","APOAPSIS":"542.339","MEAN_ELEMENT_THEORY":"SGP4","RCS_SIZE":"LARGE","REV_AT_EPOCH":"9473","FILE":"3229140","SEMIMAJOR_AXIS":"6919.201","DECAY_DATE":null,"PERIOD":"95.465","GP_ID":"190858415","PERIAPSIS":"539.793"},{"BSTAR":"0.00005685200000","ARG_OF_PERICENTER":"80.4904","ECCENTRICITY":"0.00011120","TLE_LINE1":"1 45393U 20019AK  21335.31303928  .00000565  00000-0  56852-4 0  9995","COUNTRY_CODE":"US","SITE":"AFETR","ELEMENT_SET_NO":"999","RA_OF_ASC_NODE":"306.9375","MEAN_MOTION_DDOT":"0.0000000000000","MEAN_ANOMALY":"279.6211","MEAN_MOTION_DOT":"0.00000565","EPOCH":"2021-12-01T07:30:46.593792","TLE_LINE2":"2 45393  53.0553 306.9375 0001112  80.4904 279.6211 15.06395575 94737","REF_FRAME":"TEME","OBJECT_ID":"2020-019AK","OBJECT_TYPE":"PAYLOAD","APOAPSIS":"547.997","MEAN_ELEMENT_THEORY":"SGP4","OBJECT_NAME":"STARLINK-1291","REV_AT_EPOCH":"9473","RCS_SIZE":"LARGE","DECAY_DATE":null,"FILE":"3229140","SEMIMAJOR_AXIS":"6925.362","PERIOD":"95.592","PERIAPSIS":"546.457","GP_ID":"190859166","INCLINATION":"53.0553","NORAD_CAT_ID":"45393","MEAN_MOTION":"15.06395575","EPHEMERIS_TYPE":"0","LAUNCH_DATE":"2020-03-18","TIME_SYSTEM":"UTC","CLASSIFICATION_TYPE":"U","CENTER_NAME":"EARTH"},{"OBJECT_TYPE":"PAYLOAD","MEAN_ELEMENT_THEORY":"SGP4","APOAPSIS":"548.546","OBJECT_NAME":"STARLINK-1292","OBJECT_ID":"2020-019AL","PERIAPSIS":"545.845","GP_ID":"190859417","RCS_SIZE":"LARGE","REV_AT_EPOCH":"9471","SEMIMAJOR_AXIS":"6925.331","FILE":"3229140","DECAY_DATE":null,"PERIOD":"95.592","MEAN_MOTION":"15.06405822","NORAD_CAT_ID":"45394","INCLINATION":"53.0552","LAUNCH_DATE":"2020-03-18","CLASSIFICATION_TYPE":"U","TIME_SYSTEM":"UTC","CENTER_NAME":"EARTH","EPHEMERIS_TYPE":"0","ARG_OF_PERICENTER":"49.9487","ECCENTRICITY":"0.00019500","BSTAR":"0.00009045400000","RA_OF_ASC_NODE":"306.8054","ELEMENT_SET_NO":"999","TLE_LINE1":"1 45394U 20019AL  21335.34252126  .00001066  00000-0  90454-4 0  9995","COUNTRY_CODE":"US","SITE":"AFETR","MEAN_MOTION_DDOT":"0.0000000000000","MEAN_ANOMALY":"310.1673","EPOCH":"2021-12-01T08:13:13.836864","TLE_LINE2":"2 45394  53.0552 306.8054 0001950  49.9487 310.1673 15.06405822 94714","REF_FRAME":"TEME","MEAN_MOTION_DOT":"0.00001066"},{"PERIAPSIS":"545.808","GP_ID":"190857666","FILE":"3229140","PERIOD":"95.592","DECAY_DATE":null,"SEMIMAJOR_AXIS":"6925.351","RCS_SIZE":"LARGE","REV_AT_EPOCH":"9415","MEAN_ELEMENT_THEORY":"SGP4","APOAPSIS":"548.624","OBJECT_TYPE":"PAYLOAD","OBJECT_NAME":"STARLINK-1297","OBJECT_ID":"2020-019AM","TIME_SYSTEM":"UTC","CLASSIFICATION_TYPE":"U","LAUNCH_DATE":"2020-03-18","CENTER_NAME":"EARTH","EPHEMERIS_TYPE":"0","MEAN_MOTION":"15.06399138","NORAD_CAT_ID":"45395","INCLINATION":"53.0550","ELEMENT_SET_NO":"999","RA_OF_ASC_NODE":"306.9769","COUNTRY_CODE":"US","TLE_LINE1":"1 45395U 20019AM  21335.30567338 -.00000693  00000-0 -27603-4 0  9999","SITE":"AFETR","ARG_OF_PERICENTER":"59.7367","ECCENTRICITY":"0.00020330","BSTAR":"-0.00002760300000","EPOCH":"2021-12-01T07:20:10.180032","TLE_LINE2":"2 45395  53.0550 306.9769 0002033  59.7367 300.3823 15.06399138 94154","REF_FRAME":"TEME","MEAN_MOTION_DOT":"-0.00000693","MEAN_MOTION_DDOT":"0.0000000000000","MEAN_ANOMALY":"300.3823"},{"ARG_OF_PERICENTER":"54.9843","ECCENTRICITY":"0.00019800","BSTAR":"-0.00005864100000","ELEMENT_SET_NO":"999","RA_OF_ASC_NODE":"306.7525","SITE":"AFETR","TLE_LINE1":"1 45396U 20019AN  21335.35358495 -.00001155  00000-0 -58641-4 0  9997","COUNTRY_CODE":"US","MEAN_ANOMALY":"305.1332","MEAN_MOTION_DDOT":"0.0000000000000","REF_FRAME":"TEME","TLE_LINE2":"2 45396  53.0537 306.7525 0001980  54.9843 305.1332 15.06393049 94696","EPOCH":"2021-12-01T08:29:09.739680","MEAN_MOTION_DOT":"-0.00001155","OBJECT_NAME":"STARLINK-1303","OBJECT_TYPE":"PAYLOAD","MEAN_ELEMENT_THEORY":"SGP4","APOAPSIS":"548.606","OBJECT_ID":"2020-019AN","GP_ID":"190857916","PERIAPSIS":"545.864","RCS_SIZE":"LARGE","REV_AT_EPOCH":"9469","FILE":"3229140","DECAY_DATE":null,"SEMIMAJOR_AXIS":"6925.370","PERIOD":"95.593","NORAD_CAT_ID":"45396","MEAN_MOTION":"15.06393049","INCLINATION":"53.0537","CENTER_NAME":"EARTH","LAUNCH_DATE":"2020-03-18","TIME_SYSTEM":"UTC","CLASSIFICATION_TYPE":"U","EPHEMERIS_TYPE":"0"},{"PERIAPSIS":"545.953","GP_ID":"190867101","RCS_SIZE":"LARGE","REV_AT_EPOCH":"9484","FILE":"3229368","DECAY_DATE":null,"PERIOD":"95.593","SEMIMAJOR_AXIS":"6925.381","OBJECT_TYPE":"PAYLOAD","APOAPSIS":"548.538","MEAN_ELEMENT_THEORY":"SGP4","OBJECT_NAME":"STARLINK-1307","OBJECT_ID":"2020-019AP","LAUNCH_DATE":"2020-03-18","TIME_SYSTEM":"UTC","CLASSIFICATION_TYPE":"U","CENTER_NAME":"EARTH","EPHEMERIS_TYPE":"0","MEAN_MOTION":"15.06389528","NORAD_CAT_ID":"45397","INCLINATION":"53.0543","RA_OF_ASC_NODE":"305.5116","ELEMENT_SET_NO":"999","TLE_LINE1":"1 45397U 20019AP  21335.63003062  .00000516  00000-0  53540-4 0  9997","COUNTRY_CODE":"US","SITE":"AFETR","ARG_OF_PERICENTER":"57.4603","ECCENTRICITY":"0.00018660","BSTAR":"0.00005354000000","EPOCH":"2021-12-01T15:07:14.645568","TLE_LINE2":"2 45397  53.0543 305.5116 0001866  57.4603 302.6566 15.06389528 94847","REF_FRAME":"TEME","MEAN_MOTION_DOT":"0.00000516","MEAN_MOTION_DDOT":"0.0000000000000","MEAN_ANOMALY":"302.6566"},{"OBJECT_ID":"2020-019AQ","OBJECT_NAME":"STARLINK-1312","OBJECT_TYPE":"PAYLOAD","MEAN_ELEMENT_THEORY":"SGP4","APOAPSIS":"548.383","RCS_SIZE":"LARGE","REV_AT_EPOCH":"9479","FILE":"3229368","PERIOD":"95.593","DECAY_DATE":null,"SEMIMAJOR_AXIS":"6925.381","GP_ID":"190866748","PERIAPSIS":"546.110","INCLINATION":"53.0560","NORAD_CAT_ID":"45398","MEAN_MOTION":"15.06389257","EPHEMERIS_TYPE":"0","CENTER_NAME":"EARTH","LAUNCH_DATE":"2020-03-18","TIME_SYSTEM":"UTC","CLASSIFICATION_TYPE":"U","BSTAR":"-0.00007626000000","ARG_OF_PERICENTER":"45.1302","ECCENTRICITY":"0.00016410","SITE":"AFETR","TLE_LINE1":"1 45398U 20019AQ  21335.75535823 -.00001417  00000-0 -76260-4 0  9993","COUNTRY_CODE":"US","RA_OF_ASC_NODE":"304.9474","ELEMENT_SET_NO":"999","MEAN_ANOMALY":"314.9820","MEAN_MOTION_DDOT":"0.0000000000000","MEAN_MOTION_DOT":"-0.00001417","REF_FRAME":"TEME","TLE_LINE2":"2 45398  53.0560 304.9474 0001641  45.1302 314.9820 15.06389257 94790","EPOCH":"2021-12-01T18:07:42.951072"},{"FILE":"3229345","PERIOD":"95.593","DECAY_DATE":null,"SEMIMAJOR_AXIS":"6925.392","REV_AT_EPOCH":"9496","RCS_SIZE":"LARGE","GP_ID":"190866669","PERIAPSIS":"546.143","OBJECT_ID":"2020-019AR","OBJECT_NAME":"STARLINK-1255","MEAN_ELEMENT_THEORY":"SGP4","APOAPSIS":"548.370","OBJECT_TYPE":"PAYLOAD","EPHEMERIS_TYPE":"0","CENTER_NAME":"EARTH","TIME_SYSTEM":"UTC","CLASSIFICATION_TYPE":"U","LAUNCH_DATE":"2020-03-18","INCLINATION":"53.0539","NORAD_CAT_ID":"45399","MEAN_MOTION":"15.06385928","SITE":"AFETR","COUNTRY_CODE":"US","TLE_LINE1":"1 45399U 20019AR  21335.59778514 -.00000815  00000-0 -35820-4 0  9990","ELEMENT_SET_NO":"999","RA_OF_ASC_NODE":"295.6556","BSTAR":"-0.00003582000000","ARG_OF_PERICENTER":"56.9270","ECCENTRICITY":"0.00016080","MEAN_MOTION_DOT":"-0.00000815","REF_FRAME":"TEME","TLE_LINE2":"2 45399  53.0539 295.6556 0001608  56.9270 303.1874 15.06385928 94960","EPOCH":"2021-12-01T14:20:48.636096","MEAN_ANOMALY":"303.1874","MEAN_MOTION_DDOT":"0.0000000000000"},{"LAUNCH_DATE":"2020-03-18","CLASSIFICATION_TYPE":"U","TIME_SYSTEM":"UTC","CENTER_NAME":"EARTH","EPHEMERIS_TYPE":"0","NORAD_CAT_ID":"45400","MEAN_MOTION":"15.06390391","INCLINATION":"53.0564","PERIAPSIS":"545.807","GP_ID":"190858416","RCS_SIZE":"LARGE","REV_AT_EPOCH":"9484","DECAY_DATE":null,"FILE":"3229140","PERIOD":"95.593","SEMIMAJOR_AXIS":"6925.378","OBJECT_TYPE":"PAYLOAD","MEAN_ELEMENT_THEORY":"SGP4","APOAPSIS":"548.679","OBJECT_NAME":"STARLINK-1213","OBJECT_ID":"2020-019AS","EPOCH":"2021-12-01T06:44:20.411520","TLE_LINE2":"2 45400  53.0564 297.0891 0002073  59.6837 300.4356 15.06390391 94847","REF_FRAME":"TEME","MEAN_MOTION_DOT":"0.00000176","MEAN_MOTION_DDOT":"0.0000000000000","MEAN_ANOMALY":"300.4356","ELEMENT_SET_NO":"999","RA_OF_ASC_NODE":"297.0891","TLE_LINE1":"1 45400U 20019AS  21335.28079180  .00000176  00000-0  30759-4 0  9996","COUNTRY_CODE":"US","SITE":"AFETR","ECCENTRICITY":"0.00020730","ARG_OF_PERICENTER":"59.6837","BSTAR":"0.00003075900000"}];
